COSMOS 2433 (720)       
1 32275U 07052A   25340.98902243 -.00000050  00000+0  00000+0 0  9998
2 32275  65.6864 322.3989 0005455 253.5069 106.4290  2.13103921140965
COSMOS 2432 (719)       
1 32276U 07052B   25341.11501345 -.00000050  00000+0  00000+0 0  9993
2 32276  65.7022 322.5187 0011278 312.1761  88.8989  2.13103072140994
COSMOS 2434 (721)       
1 32393U 07065A   25339.45476953  .00000087  00000+0  00000+0 0  9996
2 32393  64.3147 198.4493 0004437  70.9033  82.6626  2.13101190139646
COSMOS 2436 (723)       
1 32395U 07065C   25341.14839503  .00000062  00000+0  00000+0 0  9994
2 32395  64.3236 198.4623 0017739   9.1382 136.8175  2.13100006139637
COSMOS 2456 (730)       
1 36111U 09070A   25340.88361787 -.00000017  00000+0  00000+0 0  9997
2 36111  64.8968  77.5382 0003012 297.7159  29.0560  2.13103425124328
COSMOS 2457 (733)       
1 36112U 09070B   25341.23141135 -.00000016  00000+0  00000+0 0  9990
2 36112  64.8824  77.3740 0004767 157.9691 204.8145  2.13100799124347
COSMOS 2460 (732)       
1 36402U 10007C   25339.40948948 -.00000048  00000+0  00000+0 0  9992
2 36402  65.5337 321.0210 0002739 272.5603 131.8824  2.13106027122601
COSMOS 2476 (744)       
1 37867U 11064A   25336.83167030 -.00000022  00000+0  00000+0 0  9993
2 37867  65.1573  79.5068 0023960 233.4935 133.1658  2.13101261109581
COSMOS 2477 (745)       
1 37868U 11064B   25341.25950749 -.00000013  00000+0  00000+0 0  9993
2 37868  65.1658  79.4345 0021154 234.4805 109.9504  2.13102693109663
COSMOS 2475 (743)       
1 37869U 11064C   25341.34153881 -.00000013  00000+0  00000+0 0  9996
2 37869  65.1729  79.4516 0026233 248.5614 114.7737  2.13101364109688
COSMOS 2485 (747)       
1 39155U 13019A   25339.10608483 -.00000021  00000+0  00000+0 0  9991
2 39155  65.3094  80.1240 0024624 229.2984 130.4888  2.13102875 98144
COSMOS 2492 (754)       
1 39620U 14012A   25340.94173039 -.00000049  00000+0  00000+0 0  9990
2 39620  65.4111 320.4673 0014196 311.6327  48.2397  2.13103091 91147
COSMOS 2500 (755)       
1 40001U 14032A   25341.11400970 -.00000049  00000+0  00000+0 0  9994
2 40001  65.3466 320.2241 0008162 219.2555 140.6795  2.13105901 89367
COSMOS 2501 (702K)      
1 40315U 14075A   25340.90444385  .00000066  00000+0  00000+0 0  9991
2 40315  63.6139 197.0273 0020140 204.5326 155.4549  2.13101325 85757
COSMOS 2514 (751)       
1 41330U 16008A   25340.88840068 -.00000049  00000+0  00000+0 0  9994
2 41330  65.1372 319.6044 0012332 219.9906 139.9121  2.13102518 76520
COSMOS 2522 (752)       
1 42939U 17055A   25336.97276947  .00000107  00000+0  00000+0 0  9991
2 42939  64.0758 198.5618 0006532 226.0683 133.9743  2.13101850 63796
COSMOS 2527 (756)       
1 43508U 18053A   25341.15682263 -.00000012  00000+0  00000+0 0  9997
2 43508  65.4694  80.3184 0008731 225.1381 134.8008  2.13102044 58184
COSMOS 2529 (757)       
1 43687U 18086A   25337.03097765  .00000106  00000+0  00000+0 0  9993
2 43687  64.2917 199.2166 0007293 254.4618 105.5545  2.13101888 55102
COSMOS 2534 (758)       
1 44299U 19030A   25339.40190383  .00000087  00000+0  00000+0 0  9994
2 44299  64.3653 199.1403 0009031 283.6175 229.7103  2.13101983 50792
COSMOS 2544 (759)       
1 44850U 19088A   25339.22431745 -.00000020  00000+0  00000+0 0  9998
2 44850  65.4560  80.2099 0013774 249.0312 110.8229  2.13101790 46580
COSMOS 2545 (760)       
1 45358U 20018A   25335.19681758 -.00000028  00000+0  00000+0 0  9998
2 45358  64.4762 319.3749 0011919 248.3380 111.5456  2.13102323 44447
COSMOS 2547 (705K)      
1 46805U 20075A   25341.01596968  .00000064  00000+0  00000+0 0  9994
2 46805  64.5959 198.8877 0006231 228.9234 131.1078  2.13099929 39819
COSMOS 2557 (706K)      
1 52984U 22075A   25340.24273281 -.00000051  00000+0  00000+0 0  9992
2 52984  64.4134 321.2801 0013710 276.8497  82.9895  2.13101746 26604
COSMOS 2559 (707K)      
1 54031U 22130A   25337.71558905 -.00000044  00000+0  00000+0 0  9998
2 54031  64.3873 321.4588 0012026 192.7508 167.2215  2.13101235 24525
COSMOS 2564 (761)       
1 54377U 22161A   25340.84467544  .00000067  00000+0  00000+0 0  9995
2 54377  64.7378 199.0949 0008674 205.6872 154.3558  2.13101987 23535
COSMOS 2569 (703K)      
1 57517U 23114A   25335.69623229 -.00000016  00000+0  00000+0 0  9999
2 57517  65.1883  79.2867 0010109 287.0179  72.8703  2.13103822 18055
COSMOS 2584 (704K)      
1 63130U 25042A   25340.74463919 -.00000015  00000+0  00000+0 0  9998
2 63130  64.9729  79.3502 0007590 215.6630 144.2957  2.13102912  5943
COSMOS 2596 (708K)      
1 65590U 25206B   25341.11114486 -.00000051  00000+0  00000+0 0  9996
2 65590  64.7475 321.6695 0014010 305.1353  94.5445  2.13100202  1821
